satname,norad_id,inclination_deg,eccentricity,mean_motion_rev_per_day,perigee_km,apogee_km,l1,l2
STARLINK-1567,46038,53.089,0.0001247,15.31593884,470.20224535401667,471.9104341729535,1 46038U 20055M   26075.91668981  .02029209  00000+0  59170-1 0  9997,2 46038  53.0890  93.0292 0001247  58.6519 235.4372 15.31593884  5739
STARLINK-1569,46039,53.1418,0.0001877,15.26991072,483.52494934956576,486.1013008265236,1 46039U 20055N   26075.91668981  .00123040  00000+0  45204-2 0  9998,2 46039  53.1418  93.1015 0001877  95.7835 139.2118 15.26991072  5782
STARLINK-1582,46043,53.156,0.0001211,15.29322905,477.0049103138499,478.665426773071,1 46043U 20055S   26075.91668981  .00049968  00000+0  17341-2 0  9990,2 46043  53.1560  93.1189 0001211  96.7030  88.2849 15.29322905  5675
STARLINK-1591,46045,53.1374,0.000188,15.25928542,486.70778125324796,489.2894482443944,1 46045U 20055U   26075.91668981  .00122181  00000+0  46358-2 0  9991,2 46045  53.1374  93.0613 0001880  60.0822  16.4764 15.25928542  5838
STARLINK-1524,46047,53.1581,0.000153,15.30194334,474.1834216711932,476.2805525812546,1 46047U 20055W   26075.70844850  .00005599  00000+0  20104-3 0  9996,2 46047  53.1581  81.2380 0001530  99.9648 260.1526 15.30194334310146
STARLINK-1527,46048,53.1578,0.0001407,15.30178105,474.31616888777535,476.2447205567205,1 46048U 20055X   26075.71476582 -.00002133  00000+0 -59944-4 0  9999,2 46048  53.1578  81.3085 0001407  81.8134 278.3026 15.30178105310121
STARLINK-1540,46051,53.1613,0.0001652,15.30177248,474.1508186473902,476.41518861659097,1 46051U 20055AA  26075.73793778 -.00000260  00000+0  33423-5 0  9997,2 46051  53.1613  81.1056 0001652  89.7724 270.3466 15.30177248310166
STARLINK-1541,46052,53.1601,0.0001606,15.30181929,474.16836969112774,476.36968370690374,1 46052U 20055AB  26075.72739929 -.00002807  00000+0 -82721-4 0  9999,2 46052  53.1601  81.1956 0001606  87.5037 272.6147 15.30181929310123
STARLINK-1543,46053,53.1614,0.0001162,15.30172741,474.5000921199389,476.0928300562946,1 46053U 20055AC  26075.27651655 -.00006183  00000+0 -19697-3 0  9991,2 46053  53.1614  83.3143 0001162 116.1499 243.9622 15.30172741310084
STARLINK-1548,46054,53.1619,0.000155,15.30178878,474.2158572833332,476.3404159756883,1 46054U 20055AD  26075.74110942 -.00001239  00000+0 -29742-4 0  9993,2 46054  53.1619  81.1570 0001550 101.9492 258.1683 15.30178878310156
STARLINK-1554,46055,53.1625,0.0001605,15.30185246,474.15915248019064,476.35909263553094,1 46055U 20055AE  26075.73901760 -.00000833  00000+0 -16013-4 0  9995,2 46055  53.1625  81.2919 0001605  97.9030 262.2153 15.30185246310150
STARLINK-1564,46058,53.1619,0.0001946,15.30177423,473.94880566961365,476.6161565316579,1 46058U 20055AH  26075.73697070 -.00002134  00000+0 -59955-4 0  9992,2 46058  53.1619  81.6332 0001946  94.3395 265.7828 15.30177423310146
STARLINK-1570,46059,53.1587,0.0001433,15.30214152,474.190735127494,476.154893720307,1 46059U 20055AJ  26075.17852179  .00001022  00000+0  46606-4 0  9996,2 46059  53.1587  83.7710 0001433  96.3571 263.7593 15.30214152310028
STARLINK-1572,46060,53.1579,0.0001343,15.30108727,474.56716590740234,476.4080494770287,1 46060U 20055AK  26075.71799573  .00052813  00000+0  17877-2 0  9996,2 46060  53.1579  81.4727 0001343  98.5147 261.6006 15.30108727310113
STARLINK-1573,46061,53.1598,0.0001379,15.30203071,474.26082399630286,476.15097596811756,1 46061U 20055AL  26075.16273675  .00003744  00000+0  13847-3 0  9999,2 46061  53.1598  83.7921 0001379  97.8445 262.2713 15.30203071310062
STARLINK-1577,46063,53.1583,0.0001173,15.30190728,474.43885263467473,476.04665552498227,1 46063U 20055AN  26075.71160264  .00010978  00000+0  38233-3 0  9994,2 46063  53.1583  81.2164 0001173  90.7417 269.3718 15.30190728310149
STARLINK-1583,46064,53.1619,0.0001356,15.30189967,474.3157077097776,476.17434491531276,1 46064U 20055AP  26075.74741523 -.00001266  00000+0 -30632-4 0  9999,2 46064  53.1619  81.0830 0001356  90.2394 269.8762 15.30189967310147
STARLINK-1525,46066,53.0543,0.0002322,15.21192353,500.6452836396802,503.8405320688871,1 46066U 20055AR  26075.83335647  .01366239  00000+0  55663-1 0  9998,2 46066  53.0543  63.8211 0002322  90.1878  80.5619 15.21192353  5777
STARLINK-1536,46070,53.0556,0.0001272,15.06390503,546.3597569893864,548.1215730673703,1 46070U 20055AV  26075.11939798 -.00002455  00000+0 -14599-3 0  9994,2 46070  53.0556  67.7556 0001272  83.6209 276.4925 15.06390503310280
STARLINK-1542,46073,53.0554,0.0001272,15.06398209,546.336142065974,548.0979521355566,1 46073U 20055AY  26075.24473593  .00003245  00000+0  23666-3 0  9998,2 46073  53.0554  67.1915 0001272  93.0715 267.0420 15.06398209310299
STARLINK-1549,46074,53.0544,0.0001232,15.0640516,546.342542332618,548.0489443205743,1 46074U 20055AZ  26075.69441001 -.00000167  00000+0  77094-5 0  9994,2 46074  53.0544  65.1733 0001232  89.4166 270.6964 15.06405160310355
STARLINK-1551,46075,53.0569,0.0001317,15.0638472,546.3463147606371,548.1704639061882,1 46075U 20055BA  26075.25578203 -.00001658  00000+0 -92498-4 0  9993,2 46075  53.0569  67.1412 0001317  90.8488 269.2652 15.06384720310295
STARLINK-1552,46076,53.0552,0.0001433,15.06397061,546.2281618254838,548.2129693037732,1 46076U 20055BB  26075.67966870 -.00001603  00000+0 -88741-4 0  9997,2 46076  53.0552  65.2399 0001433  87.3217 272.7936 15.06397061310343
STARLINK-1559,46077,53.0262,0.0004629,15.30382058,471.4993658684716,477.8436960064146,1 46077U 20055BC  26075.87662029  .00054046  00000+0  18129-2 0  9997,2 46077  53.0262  40.4701 0004629  64.7959 295.3520 15.30382058310680
STARLINK-1566,46079,53.0547,0.0001416,15.06411817,546.194716544539,548.155964999446,1 46079U 20055BE  26075.69810470  .00003635  00000+0  26271-3 0  9990,2 46079  53.0547  65.1574 0001416  88.3026 271.8125 15.06411817310362
STARLINK-1568,46080,53.0634,0.0006261,15.47082881,421.00519614592577,429.5244158874202,1 46080U 20055BF  26075.08418311  .00032634  00000+0  63961-3 0  9991,2 46080  53.0634   2.4453 0006261 136.5213 223.6288 15.47082881311184
STARLINK-1578,46082,53.0557,0.0001278,15.06398316,546.3316589552369,548.1017793658548,1 46082U 20055BH  26075.24841863  .00000770  00000+0  70566-4 0  9999,2 46082  53.0557  67.1755 0001278  87.9481 272.1655 15.06398316310298
STARLINK-1579,46083,53.0558,0.000137,15.06391131,546.289963802853,548.1875167556909,1 46083U 20055BJ  26075.68240435 -.00000288  00000+0 -43169-6 0  9993,2 46083  53.0558  65.2183 0001370  93.0186 267.0959 15.06391131310352
